{
  "type": "FeatureCollection",
  "features": [
    {
      "type": "Feature",
      "properties": {
        "norad_id": 66849,
        "name": "STARLINK-36102",
        "group": "last-30-days",
        "lat": -42.95946651658124,
        "lon": -39.22413528010203,
        "alt_km": 393.04290727469106,
        "timestamp": "2025-12-24T03:53:28.362537+00:00",
        "meta_object_name": "STARLINK-36102",
        "meta_object_id": "2025-281B",
        "meta_epoch": "2025-12-23T20:00:01.000224",
        "meta_mean_motion": 15.60402061,
        "meta_eccentricity": 0.0001059,
        "meta_inclination": 43.0002,
        "meta_ra_of_asc_node": 54.8769,
        "meta_arg_of_pericenter": 277.1376,
        "meta_mean_anomaly": 302.9598,
        "meta_ephemeris_type": 0,
        "meta_classification_type": "U",
        "meta_norad_cat_id": 66849,
        "meta_element_set_no": 999,
        "meta_rev_at_epoch": 317,
        "meta_bstar": -0.026567,
        "meta_mean_motion_dot": -0.01971388,
        "meta_mean_motion_ddot": 0,
        "tle_line1": "1 66849U 25281B   25357.83334491 -.01971388  00000+0 -26567-1 0  9993",
        "tle_line2": "2 66849  43.0002  54.8769 0001059 277.1376 302.9598 15.60402061  3173"
      },
      "geometry": {
        "type": "Point",
        "coordinates": [
          -39.22413528010203,
          -42.95946651658124
        ]
      }
    },
    {
      "type": "Feature",
      "properties": {
        "norad_id": 66850,
        "name": "STARLINK-36105",
        "group": "last-30-days",
        "lat": -42.97865140030806,
        "lon": -36.60872477672967,
        "alt_km": 393.00401290120044,
        "timestamp": "2025-12-24T03:53:28.362547+00:00",
        "meta_object_name": "STARLINK-36105",
        "meta_object_id": "2025-281C",
        "meta_epoch": "2025-12-23T20:00:01.000224",
        "meta_mean_motion": 15.60411089,
        "meta_eccentricity": 0.0001119,
        "meta_inclination": 43.0002,
        "meta_ra_of_asc_node": 54.8723,
        "meta_arg_of_pericenter": 276.5564,
        "meta_mean_anomaly": 305.4576,
        "meta_ephemeris_type": 0,
        "meta_classification_type": "U",
        "meta_norad_cat_id": 66850,
        "meta_element_set_no": 999,
        "meta_rev_at_epoch": 317,
        "meta_bstar": -0.026798,
        "meta_mean_motion_dot": -0.01987019,
        "meta_mean_motion_ddot": 0,
        "tle_line1": "1 66850U 25281C   25357.83334491 -.01987019  00000+0 -26798-1 0  9999",
        "tle_line2": "2 66850  43.0002  54.8723 0001119 276.5564 305.4576 15.60411089  3178"
      },
      "geometry": {
        "type": "Point",
        "coordinates": [
          -36.60872477672967,
          -42.97865140030806
        ]
      }
    },
    {
      "type": "Feature",
      "properties": {
        "norad_id": 66851,
        "name": "STARLINK-36094",
        "group": "last-30-days",
        "lat": -42.93820920864016,
        "lon": -33.99930011998894,
        "alt_km": 393.0561650106065,
        "timestamp": "2025-12-24T03:53:28.362559+00:00",
        "meta_object_name": "STARLINK-36094",
        "meta_object_id": "2025-281D",
        "meta_epoch": "2025-12-23T20:00:01.000224",
        "meta_mean_motion": 15.60408428,
        "meta_eccentricity": 0.0001014,
        "meta_inclination": 43.0002,
        "meta_ra_of_asc_node": 54.8673,
        "meta_arg_of_pericenter": 273.8875,
        "meta_mean_anomaly": 310.0411,
        "meta_ephemeris_type": 0,
        "meta_classification_type": "U",
        "meta_norad_cat_id": 66851,
        "meta_element_set_no": 999,
        "meta_rev_at_epoch": 317,
        "meta_bstar": -0.026678,
        "meta_mean_motion_dot": -0.01978991,
        "meta_mean_motion_ddot": 0,
        "tle_line1": "1 66851U 25281D   25357.83334491 -.01978991  00000+0 -26678-1 0  9996",
        "tle_line2": "2 66851  43.0002  54.8673 0001014 273.8875 310.0411 15.60408428  3175"
      },
      "geometry": {
        "type": "Point",
        "coordinates": [
          -33.99930011998894,
          -42.93820920864016
        ]
      }
    },
    {
      "type": "Feature",
      "properties": {
        "norad_id": 66852,
        "name": "STARLINK-35992",
        "group": "last-30-days",
        "lat": -42.83847291553719,
        "lon": -31.392863857384896,
        "alt_km": 393.03517807709613,
        "timestamp": "2025-12-24T03:53:28.362571+00:00",
        "meta_object_name": "STARLINK-35992",
        "meta_object_id": "2025-281E",
        "meta_epoch": "2025-12-23T20:00:01.000224",
        "meta_mean_motion": 15.60409431,
        "meta_eccentricity": 0.0001035,
        "meta_inclination": 43.0004,
        "meta_ra_of_asc_node": 54.8629,
        "meta_arg_of_pericenter": 272.5498,
        "meta_mean_anomaly": 313.2957,
        "meta_ephemeris_type": 0,
        "meta_classification_type": "U",
        "meta_norad_cat_id": 66852,
        "meta_element_set_no": 999,
        "meta_rev_at_epoch": 317,
        "meta_bstar": -0.02669,
        "meta_mean_motion_dot": -0.01979838,
        "meta_mean_motion_ddot": 0,
        "tle_line1": "1 66852U 25281E   25357.83334491 -.01979838  00000+0 -26690-1 0  9992",
        "tle_line2": "2 66852  43.0004  54.8629 0001035 272.5498 313.2957 15.60409431  3174"
      },
      "geometry": {
        "type": "Point",
        "coordinates": [
          -31.392863857384896,
          -42.83847291553719
        ]
      }
    },
    {
      "type": "Feature",
      "properties": {
        "norad_id": 66853,
        "name": "STARLINK-35986",
        "group": "last-30-days",
        "lat": -42.67981947561513,
        "lon": -28.802817597917834,
        "alt_km": 393.19763186957516,
        "timestamp": "2025-12-24T03:53:28.362582+00:00",
        "meta_object_name": "STARLINK-35986",
        "meta_object_id": "2025-281F",
        "meta_epoch": "2025-12-23T20:00:01.000224",
        "meta_mean_motion": 15.60410161,
        "meta_eccentricity": 8.44e-05,
        "meta_inclination": 43.0004,
        "meta_ra_of_asc_node": 54.8581,
        "meta_arg_of_pericenter": 285.8325,
        "meta_mean_anomaly": 301.9315,
        "meta_ephemeris_type": 0,
        "meta_classification_type": "U",
        "meta_norad_cat_id": 66853,
        "meta_element_set_no": 999,
        "meta_rev_at_epoch": 317,
        "meta_bstar": -0.026724,
        "meta_mean_motion_dot": -0.0198198,
        "meta_mean_motion_ddot": 0,
        "tle_line1": "1 66853U 25281F   25357.83334491 -.01981980  00000+0 -26724-1 0  9992",
        "tle_line2": "2 66853  43.0004  54.8581 0000844 285.8325 301.9315 15.60410161  3179"
      },
      "geometry": {
        "type": "Point",
        "coordinates": [
          -28.802817597917834,
          -42.67981947561513
        ]
      }
    },
    {
      "type": "Feature",
      "properties": {
        "norad_id": 66854,
        "name": "STARLINK-36087",
        "group": "last-30-days",
        "lat": -42.462610867655656,
        "lon": -26.224260196031835,
        "alt_km": 393.0469408776671,
        "timestamp": "2025-12-24T03:53:28.362592+00:00",
        "meta_object_name": "STARLINK-36087",
        "meta_object_id": "2025-281G",
        "meta_epoch": "2025-12-23T20:00:01.000224",
        "meta_mean_motion": 15.60412066,
        "meta_eccentricity": 0.0001012,
        "meta_inclination": 43.0005,
        "meta_ra_of_asc_node": 54.853,
        "meta_arg_of_pericenter": 279.3022,
        "meta_mean_anomaly": 310.3773,
        "meta_ephemeris_type": 0,
        "meta_classification_type": "U",
        "meta_norad_cat_id": 66854,
        "meta_element_set_no": 999,
        "meta_rev_at_epoch": 317,
        "meta_bstar": -0.026789,
        "meta_mean_motion_dot": -0.01986451,
        "meta_mean_motion_ddot": 0,
        "tle_line1": "1 66854U 25281G   25357.83334491 -.01986451  00000+0 -26789-1 0  9992",
        "tle_line2": "2 66854  43.0005  54.8530 0001012 279.3022 310.3773 15.60412066  3173"
      },
      "geometry": {
        "type": "Point",
        "coordinates": [
          -26.224260196031835,
          -42.462610867655656
        ]
      }
    },
    {
      "type": "Feature",
      "properties": {
        "norad_id": 66855,
        "name": "STARLINK-36090",
        "group": "last-30-days",
        "lat": -42.18722389761383,
        "lon": -23.662236471978886,
        "alt_km": 392.9897568063998,
        "timestamp": "2025-12-24T03:53:28.362602+00:00",
        "meta_object_name": "STARLINK-36090",
        "meta_object_id": "2025-281H",
        "meta_epoch": "2025-12-23T20:00:01.000224",
        "meta_mean_motion": 15.60411057,
        "meta_eccentricity": 0.0001082,
        "meta_inclination": 43.0004,
        "meta_ra_of_asc_node": 54.8483,
        "meta_arg_of_pericenter": 273.7197,
        "meta_mean_anomaly": 317.8793,
        "meta_ephemeris_type": 0,
        "meta_classification_type": "U",
        "meta_norad_cat_id": 66855,
        "meta_element_set_no": 999,
        "meta_rev_at_epoch": 305,
        "meta_bstar": -0.026789,
        "meta_mean_motion_dot": -0.01986404,
        "meta_mean_motion_ddot": 0,
        "tle_line1": "1 66855U 25281H   25357.83334491 -.01986404  00000+0 -26789-1 0  9991",
        "tle_line2": "2 66855  43.0004  54.8483 0001082 273.7197 317.8793 15.60411057  3058"
      },
      "geometry": {
        "type": "Point",
        "coordinates": [
          -23.662236471978886,
          -42.18722389761383
        ]
      }
    }
  ]
}